{
    "links": {
        "self": "http://www.neowsapp.com/rest/v1/neo/3715998?api_key=iIulBulltgU6a56xZRHN4H3l9WmuAYTsLGpBGhQ2"
    },
    "id": "3715998",
    "neo_reference_id": "3715998",
    "name": "(2015 HW)",
    "designation": "2015 HW",
    "nasa_jpl_url": "http://ssd.jpl.nasa.gov/sbdb.cgi?sstr=3715998",
    "absolute_magnitude_h": 25.7,
    "estimated_diameter": {
        "kilometers": {
            "estimated_diameter_min": 0.0192555078,
            "estimated_diameter_max": 0.0430566244
        },
        "meters": {
            "estimated_diameter_min": 19.2555078188,
            "estimated_diameter_max": 43.0566244241
        },
        "miles": {
            "estimated_diameter_min": 0.0119648141,
            "estimated_diameter_max": 0.0267541378
        },
        "feet": {
            "estimated_diameter_min": 63.1742402722,
            "estimated_diameter_max": 141.2618956756
        }
    },
    "is_potentially_hazardous_asteroid": false,
    "close_approach_data": [
        {
            "close_approach_date": "2014-10-16",
            "close_approach_date_full": "2014-Oct-16 06:22",
            "epoch_date_close_approach": 1413440520000,
            "relative_velocity": {
                "kilometers_per_second": "11.8329042596",
                "kilometers_per_hour": "42598.4553346172",
                "miles_per_hour": "26469.0235383348"
            },
            "miss_distance": {
                "astronomical": "0.3872871868",
                "lunar": "150.6547156652",
                "kilometers": "57937338.223572116",
                "miles": "36000592.6024665608"
            },
            "orbiting_body": "Earth"
        },
        {
            "close_approach_date": "2015-04-13",
            "close_approach_date_full": "2015-Apr-13 10:44",
            "epoch_date_close_approach": 1428921840000,
            "relative_velocity": {
                "kilometers_per_second": "13.6957296149",
                "kilometers_per_hour": "49304.6266135298",
                "miles_per_hour": "30635.9775755014"
            },
            "miss_distance": {
                "astronomical": "0.0489757726",
                "lunar": "19.0515755414",
                "kilometers": "7326671.262564362",
                "miles": "4552582.4165057156"
            },
            "orbiting_body": "Earth"
        }
    ],
    "orbital_data": {
        "orbit_id": "5",
        "orbit_determination_date": "2017-04-06 08:34:22",
        "first_observation_date": "2015-04-17",
        "last_observation_date": "2015-04-24",
        "data_arc_in_days": 7,
        "observations_used": 27,
        "orbit_uncertainty": "8",
        "minimum_orbit_intersection": ".0465817",
        "jupiter_tisserand_invariant": "5.154",
        "epoch_osculation": "2457131.5",
        "eccentricity": ".2829100269346076",
        "semi_major_axis": "1.20940715458872",
        "inclination": "22.92828777589041",
        "ascending_node_longitude": "206.748199146939",
        "orbital_period": "485.7996829946285",
        "perihelion_distance": ".8672537439091179",
        "perihelion_argument": "280.2404241973201",
        "aphelion_distance": "1.551560565268322",
        "perihelion_time": "2457062.701097345214",
        "mean_anomaly": "50.98316409563572",
        "mean_motion": ".7410461813825031",
        "equinox": "J2000",
        "orbit_class": {
            "orbit_class_type": "APO",
            "orbit_class_description": "Near-Earth asteroid orbits which cross the Earth’s orbit similar to that of 1862 Apollo",
            "orbit_class_range": "a (semi-major axis) > 1.0 AU; q (perihelion) < 1.017 AU"
        }
    },
    "is_sentry_object": false
}